TDRS 3                  
1 19548U 88091B   25085.11626689 -.00000295  00000+0  00000+0 0  9997
2 19548  12.9449 343.9816 0040162 346.3408 206.5517  1.00270743120871
FLTSATCOM 8 (USA 46)    
1 20253U 89077A   25073.68799410 -.00000370  00000+0  00000+0 0  9993
2 20253  12.5518 353.9155 0006996 339.8414 211.7540  1.00259850255955
SKYNET 4C               
1 20776U 90079A   25083.88447634  .00000132  00000+0  00000+0 0  9993
2 20776  13.4838 352.8668 0002823   5.0340 176.5016  1.00276475126384
TDRS 5                  
1 21639U 91054B   25085.34652389 -.00000033  00000+0  00000+0 0  9995
2 21639  14.1255 357.0561 0003599   4.2472 197.5008  0.99948281123212
TDRS 6                  
1 22314U 93003B   25085.15987395 -.00000291  00000+0  00000+0 0  9995
2 22314  14.1721   0.3545 0006387 170.3008  24.8219  1.00268566117885
UFO 2 (USA 95)          
1 22787U 93056A   25084.97433196  .00000129  00000+0  00000+0 0  9990
2 22787  11.7444   5.9327 0004335   7.3829 189.7229  1.00273048114165
USA 99 (MILSTAR-1 1)    
1 22988U 94009A   25085.38855161 -.00000192  00000+0  00000+0 0  9999
2 22988  16.9471  32.4818 0002198 319.7248 241.7658  1.00273768 27151
UFO 4 (USA 108)         
1 23467U 95003A   25085.50282433 -.00000019  00000+0  00000+0 0  9995
2 23467   9.6998  14.6268 0002287 339.7276 183.1233  1.00270512110469
TDRS 7                  
1 23613U 95035B   25084.71535431 -.00000196  00000+0  00000+0 0  9990
2 23613  13.5641 351.2737 0026249  67.4067 107.0620  1.00269159108758
USA 115 (MILSTAR-1 2)   
1 23712U 95060A   25084.50503578 -.00000014  00000+0  00000+0 0  9991
2 23712  13.9073   7.0168 0004005 343.7355 254.2414  1.00273666 28385
INMARSAT 3-F1           
1 23839U 96020A   25085.11145867 -.00000063  00000+0  00000+0 0  9993
2 23839   9.6640  50.5866 0003937 298.0812 234.7196  1.00000470106072
INMARSAT 3-F2           
1 24307U 96053A   25083.99211505  .00000020  00000+0  00000+0 0  9999
2 24307   8.8350  58.3473 0005813 318.2829  46.8111  0.99979512104436
INMARSAT 3-F3           
1 24674U 96070A   25084.78184965 -.00000324  00000+0  00000+0 0  9990
2 24674   9.3446  53.7880 0005278 286.2399 263.1279  1.00004865103427
AMC-3                   
1 24936U 97050A   25084.81156274 -.00000258  00000+0  00000+0 0  9992
2 24936   7.0438  69.1127 0003136 299.2052  35.3506  1.00270489 47932
USA 134                 
1 25019U 97065A   25084.49445196 -.00000056  00000+0  00000+0 0  9995
2 25019  12.2471  24.9433 0004831 314.6591 269.1778  1.00272496 28456
INMARSAT 3-F5           
1 25153U 98006B   25084.81516583 -.00000286  00000+0  00000+0 0  9990
2 25153   8.6845  57.5513 0005090 311.4814  53.9611  1.00270799 99403
ASTRA 2A                
1 25462U 98050A   25084.95706094  .00000069  00000+0  00000+0 0  9993
2 25462   5.9604  74.1659 0003354 290.3036 220.9209  1.00272951 41843
SKYNET 4E               
1 25639U 99009B   25084.04002471 -.00000029  00000+0  00000+0 0  9999
2 25639  11.7964  11.5645 0002909 341.8333 202.5464  1.00274667 46671
ABS-6                   
1 25924U 99053A   25084.92883211 -.00000122  00000+0  00000+0 0  9995
2 25924   0.0210 130.5828 0002602 229.1099 317.3183  1.00271354 93344
UFO 10 (USA 146)        
1 25967U 99063A   25085.17835653 -.00000184  00000+0  00000+0 0  9996
2 25967   9.6738  29.4364 0003913 283.9644 271.6796  1.00275283 92843
USA 148                 
1 26052U 00001A   25084.61433630  .00000041  00000+0  00000+0 0  9994
2 26052  11.1707  35.7221 0002459 291.4050 257.5623  1.00271918 28464
ASIASTAR                
1 26107U 00016A   25084.91805894 -.00000330  00000+0  00000+0 0  9991
2 26107   8.0764  62.7941 0004071 304.4751 251.8407  1.00272538 91654
USA 149 (DSP 20)        
1 26356U 00024A   25085.49003203  .00000099  00000+0  00000+0 0  9995
2 26356  12.8313  14.9305 0001297 191.3298 349.2126  1.00264110 27119
TDRS 8                  
1 26388U 00034A   25084.58100402  .00000099  00000+0  00000+0 0  9999
2 26388  11.9828  34.9859 0005732 261.1562 288.5902  1.00272282 90687
INTELSAT 9 (IS-9)       
1 26451U 00043A   25084.91041346 -.00000009  00000+0  00000+0 0  9990
2 26451   9.4005  53.2300 0003297 332.0068 192.3626  1.00272011 39649
NSS-11                  
1 26554U 00059A   25085.14906057  .00000023  00000+0  00000+0 0  9991
2 26554   0.9643  86.6911 0002974 272.4712  54.3385  1.00272484 89681
USA 153                 
1 26575U 00065A   25084.76016949 -.00000322  00000+0  00000+0 0  9993
2 26575  10.8471  38.9505 0001320 321.1595 231.2783  1.00265758 28437
AMC-6                   
1 26580U 00067A   25085.19744791  .00000086  00000+0  00000+0 0  9998
2 26580   0.0478  62.7025 0003115 284.3354 132.8513  1.00270936 89494
USA 157 (MILSTAR-2 2)   
1 26715U 01009A   25085.01030043  .00000115  00000+0  00000+0 0  9997
2 26715  11.0497  22.3659 0038129 176.5719 198.4517  1.00275053 27154
INTELSAT 10 (IS-10)     
1 26766U 01019A   25084.96437414 -.00000005  00000+0  00000+0 0  9999
2 26766   7.9997  63.8146 0003795 304.5424 228.5728  1.00271929 41127
INTELSAT 901 (IS-901)   
1 26824U 01024A   25084.82037865 -.00000204  00000+0  00000+0 0  9992
2 26824   0.0795 102.7022 0002327 277.6239  71.0212  1.00270897 18487
USA 159 (DSP 21)        
1 26880U 01033A   25085.17314370 -.00000293  00000+0  00000+0 0  9990
2 26880  12.3620  19.4742 0001178  67.6359 109.7807  1.00264807 27122
INTELSAT 902 (IS-902)   
1 26900U 01039A   25084.81594775 -.00000281  00000+0  00000+0 0  9995
2 26900   4.9813  77.2408 0004470 284.3328  65.5713  1.00273546 86196
USA 164 (MILSTAR-2 3)   
1 27168U 02001A   25085.04836475  .00000070  00000+0  00000+0 0  9999
2 27168  10.6444  24.4294 0100292   5.5265 190.2401  1.00277763 27152
INTELSAT 904 (IS-904)   
1 27380U 02007A   25085.31988462 -.00000213  00000+0  00000+0 0  9995
2 27380   5.7940  74.5261 0003210 297.6714 257.4738  1.00272722 84599
DIRECTV 5 (TEMPO 1)     
1 27426U 02023A   25085.46730045 -.00000056  00000+0  00000+0 0  9997
2 27426   3.7284  80.9069 0003600 297.3892 223.9611  1.00271189 83811
INTELSAT 905 (IS-905)   
1 27438U 02027A   25084.45322760 -.00000172  00000+0  00000+0 0  9992
2 27438   5.6193  75.1725 0005910 286.2180 266.9815  0.99739294 46862
GALAXY 3C (G-3C)        
1 27445U 02030A   25085.10544819 -.00000153  00000+0  00000+0 0  9997
2 27445   2.5726  83.7408 0002681  50.1449 353.0214  1.00271424 83455
INTELSAT 906 (IS-906)   
1 27513U 02041A   25084.90997906  .00000015  00000+0  00000+0 0  9997
2 27513   4.6603  78.4366 0002595 279.6361 217.2473  1.00271423 82532
TDRS 10                 
1 27566U 02055A   25085.56336581  .00000061  00000+0  00000+0 0  9990
2 27566  10.2226  46.7602 0005591 286.8949 272.1935  1.00686175 81734
NIMIQ 2                 
1 27632U 02062A   25085.45844340 -.00000065  00000+0  00000+0 0  9992
2 27632   8.4020  61.4731 0006139 304.7747 233.7252  1.00271597 81374
USA 167                 
1 27691U 03008A   25085.01586076  .00000009  00000+0  00000+0 0  9996
2 27691  10.0657  47.2501 0003909 294.5553  85.8081  1.00272754 27130
USA 169 (MILSTAR-2 4)   
1 27711U 03012A   25084.64181559 -.00000190  00000+0  00000+0 0  9991
2 27711  11.6636  33.3228 0099998   7.1999 166.0297  1.00273384 28451
ASIASAT 4               
1 27718U 03014A   25084.84003193 -.00000222  00000+0  00000+0 0  9995
2 27718   3.5550  81.3948 0002498 273.1198 278.9760  1.00271596 40804
HELLAS-SAT 2            
1 27811U 03020A   25084.75249194 -.00000081  00000+0  00000+0 0  9992
2 27811   6.2318  73.2066 0006050 261.8560 109.2776  1.00272048 38359
THURAYA-2               
1 27825U 03026A   25084.94582205  .00000129  00000+0  00000+0 0  9999
2 27825   8.1392  33.5638 0008013 330.2595 204.3063  1.00273836 79853
OPTUS C1                
1 27831U 03028B   25084.84003193 -.00000149  00000+0  00000+0 0  9994
2 27831   5.7602  74.8141 0006038 289.9655 276.9344  1.00270708 48562
GALAXY 23 (G-23)        
1 27854U 03034A   25085.20181823  .00000011  00000+0  00000+0 0  9991
2 27854   2.0374  85.2770 0002858 285.4488 124.9173  1.00270190 84059
USA 170                 
1 27875U 03040A   25066.11890927  .00000117  00000+0  00000+0 0  9999
2 27875   9.5038  52.1907 0001925 332.8166 207.2377  1.00279576 28304
GALAXY 13 (HORIZONS-1)  
1 27954U 03044A   25085.24171809  .00000130  00000+0  00000+0 0  9992
2 27954   0.2586  91.6423 0002374 275.9124 113.3740  1.00273020 78662
YAMAL 202               
1 28089U 03053A   25085.48805234 -.00000079  00000+0  00000+0 0  9997
2 28089   5.2102  76.3610 0003894 268.8753 178.1204  1.00271239 78198
UFO 11 (USA 174)        
1 28117U 03057A   25084.97172045 -.00000101  00000+0  00000+0 0  9999
2 28117   8.5178  35.7959 0003215 307.4803 265.7137  1.00272138 77957
USA 176 (DSP 22)        
1 28158U 04004A   25085.34308167 -.00000215  00000+0  00000+0 0  9991
2 28158  11.4488  29.2075 0000548 356.9325   8.7737  1.00271836 27129
ABS-4 (MOBISAT-1)       
1 28184U 04007A   25085.12362192  .00000040  00000+0  00000+0 0  9992
2 28184   4.9040  77.4445 0005815 284.0299 287.8273  1.00274044 77087
EUTELSAT 7A             
1 28187U 04008A   25085.15258057  .00000104  00000+0  00000+0 0  9994
2 28187   4.6879  77.3381 0003896 289.7479  92.4766  1.00272227 77082
AMC-11                  
1 28252U 04017A   25084.66092928 -.00000051  00000+0  00000+0 0  9997
2 28252   0.0163  84.7204 0002955 284.4188 301.0527  1.00271955 76373
INTELSAT 10-02          
1 28358U 04022A   25084.85461578 -.00000013  00000+0  00000+0 0  9990
2 28358   0.0248 180.8518 0000809 182.3136 127.0959  1.00270089 76063
ANIK F2                 
1 28378U 04027A   25085.20652344 -.00000051  00000+0  00000+0 0  9992
2 28378   2.1261  85.2644 0003802 312.4199 109.4586  1.00272010 75865
AMC-15                  
1 28446U 04041A   25084.83754920 -.00000091  00000+0  00000+0 0  9999
2 28446   0.0401  27.8534 0002319 327.5036  24.6405  1.00271473 74817
